STARLINK-36077          
1 66903U 25283AB  26068.16171940  .00031980  00000+0  10878-2 0  9991
2 66903  53.1613  26.5921 0001234  67.6201 292.4930 15.30183768 15762
2025-313BD              
1 67299U 25313BD  26068.62968741  .00081010  00000+0  27634-2 0  9995
2 67299  97.3970 145.2850 0007287 333.4514  26.6352 15.30002360 10838
